{
  "type": "FeatureCollection",
  "features": [
    {
      "type": "Feature",
      "properties": {
        "norad_id": 44333,
        "name": "AT&T T-16",
        "group": "intelsat",
        "lat": 0.003942385145104489,
        "lon": -151.90490708538985,
        "alt_km": 35784.187651502216,
        "timestamp": "2025-12-20T14:38:01.626570+00:00",
        "meta_object_name": "AT&T T-16",
        "meta_object_id": "2019-034A",
        "meta_epoch": "2025-12-20T05:59:17.334816",
        "meta_mean_motion": 1.00272894,
        "meta_eccentricity": 9.979e-05,
        "meta_inclination": 0.0237,
        "meta_ra_of_asc_node": 62.8934,
        "meta_arg_of_pericenter": 77.7615,
        "meta_mean_anomaly": 297.398,
        "meta_ephemeris_type": 0,
        "meta_classification_type": "U",
        "meta_norad_cat_id": 44333,
        "meta_element_set_no": 999,
        "meta_rev_at_epoch": 2383,
        "meta_bstar": 0,
        "meta_mean_motion_dot": -9.2e-07,
        "meta_mean_motion_ddot": 0,
        "tle_line1": "1 44333U 19034A   25354.24950619 -.00000092  00000+0  00000+0 0  9999",
        "tle_line2": "2 44333   0.0237  62.8934 0000997  77.7615 297.3980  1.00272894 23838"
      },
      "geometry": {
        "type": "Point",
        "coordinates": [
          -151.90490708538985,
          0.003942385145104489
        ]
      }
    },
    {
      "type": "Feature",
      "properties": {
        "norad_id": 44476,
        "name": "INTELSAT 39 (IS-39)",
        "group": "intelsat",
        "lat": 0.018257106853328774,
        "lon": 10.874717869208595,
        "alt_km": 35789.36044801441,
        "timestamp": "2025-12-20T14:38:01.626582+00:00",
        "meta_object_name": "INTELSAT 39 (IS-39)",
        "meta_object_id": "2019-049B",
        "meta_epoch": "2025-12-20T04:57:56.104704",
        "meta_mean_motion": 1.00270763,
        "meta_eccentricity": 0.00011682,
        "meta_inclination": 0.0186,
        "meta_ra_of_asc_node": 341.013,
        "meta_arg_of_pericenter": 158.0135,
        "meta_mean_anomaly": 86.4497,
        "meta_ephemeris_type": 0,
        "meta_classification_type": "U",
        "meta_norad_cat_id": 44476,
        "meta_element_set_no": 999,
        "meta_rev_at_epoch": 2333,
        "meta_bstar": 0,
        "meta_mean_motion_dot": 5.7e-07,
        "meta_mean_motion_ddot": 0,
        "tle_line1": "1 44476U 19049B   25354.20689936  .00000057  00000+0  00000+0 0  9990",
        "tle_line2": "2 44476   0.0186 341.0130 0001168 158.0135  86.4497  1.00270763 23338"
      },
      "geometry": {
        "type": "Point",
        "coordinates": [
          10.874717869208595,
          0.018257106853328774
        ]
      }
    },
    {
      "type": "Feature",
      "properties": {
        "norad_id": 46114,
        "name": "GALAXY 30 (G-30)",
        "group": "intelsat",
        "lat": -0.004071940466357085,
        "lon": -176.06671132302654,
        "alt_km": 35785.12793530187,
        "timestamp": "2025-12-20T14:38:01.626594+00:00",
        "meta_object_name": "GALAXY 30 (G-30)",
        "meta_object_id": "2020-056C",
        "meta_epoch": "2025-12-20T05:46:45.532128",
        "meta_mean_motion": 1.00273206,
        "meta_eccentricity": 0.00020308,
        "meta_inclination": 0.0015,
        "meta_ra_of_asc_node": 355.2926,
        "meta_arg_of_pericenter": 275.1149,
        "meta_mean_anomaly": 140.376,
        "meta_ephemeris_type": 0,
        "meta_classification_type": "U",
        "meta_norad_cat_id": 46114,
        "meta_element_set_no": 999,
        "meta_rev_at_epoch": 1949,
        "meta_bstar": 0,
        "meta_mean_motion_dot": 6e-07,
        "meta_mean_motion_ddot": 0,
        "tle_line1": "1 46114U 20056C   25354.24080477  .00000060  00000+0  00000+0 0  9994",
        "tle_line2": "2 46114   0.0015 355.2926 0002030 275.1149 140.3760  1.00273206 19495"
      },
      "geometry": {
        "type": "Point",
        "coordinates": [
          -176.06671132302654,
          -0.004071940466357085
        ]
      }
    },
    {
      "type": "Feature",
      "properties": {
        "norad_id": 54026,
        "name": "GALAXY 33 (G-33)",
        "group": "intelsat",
        "lat": 0.015320084073383254,
        "lon": 175.92238781505634,
        "alt_km": 35786.52455981398,
        "timestamp": "2025-12-20T14:38:01.626606+00:00",
        "meta_object_name": "GALAXY 33 (G-33)",
        "meta_object_id": "2022-128A",
        "meta_epoch": "2025-12-20T04:45:38.640960",
        "meta_mean_motion": 1.00271193,
        "meta_eccentricity": 0.00015456,
        "meta_inclination": 0.0153,
        "meta_ra_of_asc_node": 39.0928,
        "meta_arg_of_pericenter": 229.5851,
        "meta_mean_anomaly": 118.7712,
        "meta_ephemeris_type": 0,
        "meta_classification_type": "U",
        "meta_norad_cat_id": 54026,
        "meta_element_set_no": 999,
        "meta_rev_at_epoch": 1194,
        "meta_bstar": 0,
        "meta_mean_motion_dot": 1.03e-06,
        "meta_mean_motion_ddot": 0,
        "tle_line1": "1 54026U 22128A   25354.19836390  .00000103  00000+0  00000+0 0  9992",
        "tle_line2": "2 54026   0.0153  39.0928 0001545 229.5851 118.7712  1.00271193 11942"
      },
      "geometry": {
        "type": "Point",
        "coordinates": [
          175.92238781505634,
          0.015320084073383254
        ]
      }
    },
    {
      "type": "Feature",
      "properties": {
        "norad_id": 54027,
        "name": "GALAXY 34 (G-34)",
        "group": "intelsat",
        "lat": 0.003701224837656572,
        "lon": 179.97111709391686,
        "alt_km": 35786.27080516568,
        "timestamp": "2025-12-20T14:38:01.626617+00:00",
        "meta_object_name": "GALAXY 34 (G-34)",
        "meta_object_id": "2022-128B",
        "meta_epoch": "2025-12-20T04:45:38.640960",
        "meta_mean_motion": 1.00267808,
        "meta_eccentricity": 0.00018371,
        "meta_inclination": 0.0229,
        "meta_ra_of_asc_node": 8.4334,
        "meta_arg_of_pericenter": 254.8895,
        "meta_mean_anomaly": 128.1832,
        "meta_ephemeris_type": 0,
        "meta_classification_type": "U",
        "meta_norad_cat_id": 54027,
        "meta_element_set_no": 999,
        "meta_rev_at_epoch": 1211,
        "meta_bstar": 0,
        "meta_mean_motion_dot": 0,
        "meta_mean_motion_ddot": 0,
        "tle_line1": "1 54027U 22128B   25354.19836390  .00000000  00000+0  00000+0 0  9999",
        "tle_line2": "2 54027   0.0229   8.4334 0001837 254.8895 128.1832  1.00267808 12117"
      },
      "geometry": {
        "type": "Point",
        "coordinates": [
          179.97111709391686,
          0.003701224837656572
        ]
      }
    },
    {
      "type": "Feature",
      "properties": {
        "norad_id": 54243,
        "name": "GALAXY 31 (G-31)",
        "group": "intelsat",
        "lat": 0.008957792287373503,
        "lon": -172.07623686994373,
        "alt_km": 35786.349830780804,
        "timestamp": "2025-12-20T14:38:01.626629+00:00",
        "meta_object_name": "GALAXY 31 (G-31)",
        "meta_object_id": "2022-153A",
        "meta_epoch": "2025-12-20T04:05:46.099680",
        "meta_mean_motion": 1.00271074,
        "meta_eccentricity": 0.00013698,
        "meta_inclination": 0.017,
        "meta_ra_of_asc_node": 78.321,
        "meta_arg_of_pericenter": 200.6206,
        "meta_mean_anomaly": 110.5109,
        "meta_ephemeris_type": 0,
        "meta_classification_type": "U",
        "meta_norad_cat_id": 54243,
        "meta_element_set_no": 999,
        "meta_rev_at_epoch": 533,
        "meta_bstar": 0,
        "meta_mean_motion_dot": 3.7e-07,
        "meta_mean_motion_ddot": 0,
        "tle_line1": "1 54243U 22153A   25354.17067245  .00000037  00000+0  00000+0 0  9990",
        "tle_line2": "2 54243   0.0170  78.3210 0001369 200.6206 110.5109  1.00271074  5334"
      },
      "geometry": {
        "type": "Point",
        "coordinates": [
          -172.07623686994373,
          0.008957792287373503
        ]
      }
    },
    {
      "type": "Feature",
      "properties": {
        "norad_id": 54244,
        "name": "GALAXY 32 (G-32)",
        "group": "intelsat",
        "lat": -0.02202257281216757,
        "lon": -142.07743329726256,
        "alt_km": 35787.77974097428,
        "timestamp": "2025-12-20T14:38:01.626641+00:00",
        "meta_object_name": "GALAXY 32 (G-32)",
        "meta_object_id": "2022-153B",
        "meta_epoch": "2025-12-19T12:21:45.204192",
        "meta_mean_motion": 1.00271304,
        "meta_eccentricity": 0.0001932,
        "meta_inclination": 0.0112,
        "meta_ra_of_asc_node": 8.1777,
        "meta_arg_of_pericenter": 310.6888,
        "meta_mean_anomaly": 223.9419,
        "meta_ephemeris_type": 0,
        "meta_classification_type": "U",
        "meta_norad_cat_id": 54244,
        "meta_element_set_no": 999,
        "meta_rev_at_epoch": 1134,
        "meta_bstar": 0,
        "meta_mean_motion_dot": -1.5e-06,
        "meta_mean_motion_ddot": 0,
        "tle_line1": "1 54244U 22153B   25353.51510653 -.00000150  00000+0  00000+0 0  9991",
        "tle_line2": "2 54244   0.0112   8.1777 0001932 310.6888 223.9419  1.00271304 11341"
      },
      "geometry": {
        "type": "Point",
        "coordinates": [
          -142.07743329726256,
          -0.02202257281216757
        ]
      }
    }
  ]
}